# From MPC106342
C/1995 O1 (Hale-Bopp),e,88.9848,283.3722,130.6120,180.1598,0.0004076,0.99493338,0.0000,03/29.6745/1997,2000,g -2.0,4.0
# From NK 1615
P/1996 R2 (Lagerkvist),e,2.6003,40.0418,333.2951,3.774765,0.1343907,0.31388599,64.1690,06/03.0/2020,2000,g 11.5,4.0
# From MPC 30063
P/1997 B1 (Kobayashi),e,12.3401,328.8906,183.3843,8.561910,0.0393412,0.76005695,333.8839,06/03.0/2020,2000,g 15.0,2.0
# From MPC 75703
P/1998 VS24 (LINEAR),e,5.0244,159.0300,244.7279,4.530639,0.1022033,0.24175918,88.6083,06/03.0/2020,2000,g 13.0,2.0
# From NK 731
P/1999 RO28 (LONEOS),e,7.5660,137.8824,231.2754,3.426703,0.1553779,0.67193382,53.2882,06/03.0/2020,2000,g 20.0,2.0
# From MPC 75704
P/1999 XN120 (Catalina),e,5.0297,285.2964,161.9480,4.179111,0.1153661,0.21047882,125.4845,06/03.0/2020,2000,g 13.5,2.0
# From NK 744
P/2000 R2 (LINEAR),e,11.6835,160.3015,176.4916,3.465306,0.1527888,0.53150376,53.7278,06/03.0/2020,2000,g 18.0,4.0
# From MPC 43019
P/2001 H5 (NEAT),e,8.3683,328.6878,224.8753,6.098229,0.0654483,0.59894711,110.4610,06/03.0/2020,2000,g 12.0,4.0
# From MPC 75704
P/2001 Q6 (NEAT),e,56.8947,22.1031,42.9628,7.948252,0.0439842,0.82268881,299.8999,06/03.0/2020,2000,g 13.5,4.0
# From MPC 47727
P/2002 EJ57 (LINEAR),e,4.9757,330.3446,167.3206,6.473977,0.0598339,0.59320151,42.7929,06/03.0/2020,2000,g 12.5,4.0
# From MPC109588
P/2002 T5 (LINEAR),e,30.8531,123.0887,326.7968,7.001758,0.0531978,0.43764709,330.1618,06/03.0/2020,2000,g  8.0,4.0
# From MPC109588
P/2002 T6 (NEAT-LINEAR),e,10.8337,206.6175,219.4885,7.663444,0.0464588,0.55961838,289.7208,06/03.0/2020,2000,g 10.5,4.0
# From MPC 75007
C/2002 VQ94 (LINEAR),e,70.5301,34.9769,100.1964,186.7840,0.0003861,0.96340155,2.0231,06/03.0/2020,2000,g  9.5,2.0
# From MPC 50354
P/2003 F2 (NEAT),e,11.6055,359.0889,191.8525,6.485419,0.0596756,0.54201857,12.1689,06/03.0/2020,2000,g 16.5,2.0
# From MPC 50139
P/2003 QX29 (NEAT),e,11.3899,264.6027,37.3289,8.036815,0.0432592,0.47287721,278.2983,06/03.0/2020,2000,g  8.5,4.0
# From MPC105235
P/2003 T12 (SOHO),e,11.0160,174.5750,219.7717,2.586116,0.2369911,0.76960650,6.4327,06/03.0/2020,2000,g 17.0,4.0
# From MPC 82312
P/2004 A1 (LONEOS),e,10.5518,124.8497,21.5162,7.951651,0.0439560,0.30953251,253.3777,06/03.0/2020,2000,g  6.5,4.0
# From MPC 54558
P/2004 DO29 (Spacewatch-LINEAR),e,14.5313,147.3891,40.7603,7.280625,0.0501708,0.44155489,286.6220,06/03.0/2020,2000,g 13.5,2.0
# From MPC 54823
P/2004 FY140 (LINEAR),e,2.1349,326.7633,242.4833,4.900305,0.0908593,0.16896444,161.1616,06/03.0/2020,2000,g 12.5,2.0
# From MPC 53304
P/2004 R3 (LINEAR-NEAT),e,12.8149,305.5034,39.4526,4.778452,0.0943568,0.26069716,314.1543,06/03.0/2020,2000,g 14.5,4.0
# From MPC 55521
P/2004 V3 (Siding Spring),e,50.4237,356.1094,322.2589,7.146579,0.0515890,0.44625884,294.6474,06/03.0/2020,2000,g 11.5,4.0
# From MPC 75705
P/2004 V5 (LINEAR-Hill),e,19.3480,47.7542,87.8587,7.972648,0.0437825,0.44360517,244.6587,06/03.0/2020,2000,g  8.0,4.0
# From MPC 54164
P/2005 E1 (Tubbiolo),e,4.2637,335.5802,194.1776,7.034986,0.0528213,0.37531000,295.8640,06/03.0/2020,2000,g 10.0,4.0
# From MPC 54823
P/2005 GF8 (LONEOS),e,1.1934,314.8390,285.3553,5.875420,0.0692063,0.51840295,17.0703,06/03.0/2020,2000,g 11.5,4.0
# From MPC 79019
P/2005 J1 (McNaught),e,31.7693,268.7970,338.9459,3.569180,0.1461677,0.57007171,87.5813,06/03.0/2020,2000,g 16.5,4.0
# From MPC 74246
P/2005 L1 (McNaught),e,7.7385,138.2464,149.6466,3.975844,0.1243255,0.20932495,295.6750,06/03.0/2020,2000,g  9.5,4.0
# From MPC 75706
P/2005 S2 (Skiff),e,3.1356,161.1856,229.1865,8.019186,0.0434019,0.19643748,223.1286,06/03.0/2020,2000,g  7.5,4.0
# From MPC 75706
P/2005 SB216 (LONEOS),e,24.0642,1.2742,83.4124,7.124694,0.0518268,0.46298944,253.3081,06/03.0/2020,2000,g 12.0,2.0
# From MPC 55717
P/2005 T2 (Christensen),e,8.2928,260.1578,58.8038,3.846746,0.1306363,0.41655724,7.2687,06/03.0/2020,2000,g 14.5,4.0
# From MPC 73461
P/2005 T3 (Read),e,6.2262,27.7735,7.2365,7.572938,0.0472942,0.17354154,252.2934,06/03.0/2020,2000,g  9.0,4.0
# From MPC 73461
P/2005 T4 (SWAN),e,160.1533,25.5952,41.4997,9.360212,0.0344172,0.93009291,184.5600,06/03.0/2020,2000,g 15.0,4.0
# From MPC 75706
P/2005 T5 (Broughton),e,21.3458,57.0135,304.4921,7.293224,0.0500409,0.55166593,268.0128,06/03.0/2020,2000,g 11.0,4.0
# From MPC 56954
P/2005 W3 (Kowalski),e,16.4129,210.1161,200.5831,6.337280,0.0617803,0.54362841,330.6853,06/03.0/2020,2000,g 12.0,4.0
# From MPC 75706
P/2005 XA54 (LONEOS-Hill),e,17.1184,143.6734,15.1480,6.051271,0.0662116,0.71016475,344.0894,06/03.0/2020,2000,g 14.0,4.0
# From MPC 75706
P/2005 Y2 (McNaught),e,19.1081,94.5166,194.1483,6.366159,0.0613604,0.46897801,351.3847,06/03.0/2020,2000,g  9.0,4.0
# From MPC 56954
P/2006 F4 (Spacewatch),e,12.3881,183.9585,31.2446,3.529562,0.1486356,0.33897144,45.3475,06/03.0/2020,2000,g 15.0,4.0
# From MPC 58118
P/2006 H1 (McNaught),e,12.8051,359.8916,309.2788,5.770940,0.0710942,0.58019449,12.6894,06/03.0/2020,2000,g 12.5,4.0
# From MPC 75707
P/2006 HR30 (Siding Spring),e,31.8324,309.8954,117.3010,7.811234,0.0451466,0.84178527,222.0559,06/03.0/2020,2000,g 11.0,4.0
# From MPC 75707
P/2006 S4 (Christensen),e,39.5408,36.1021,305.1602,6.307456,0.0622190,0.50766431,323.2359,06/03.0/2020,2000,g 11.0,4.0
# From MPC 75707
P/2007 A2 (Christensen),e,26.4877,300.9063,186.7944,6.321349,0.0620140,0.55744472,303.5920,06/03.0/2020,2000,g 13.5,4.0
# From MPC 59319
P/2007 B1 (Christensen),e,12.3771,77.6668,46.7707,5.817477,0.0702428,0.58080849,343.3737,06/03.0/2020,2000,g 13.5,4.0
# From MPC 75707
P/2007 C2 (Catalina),e,8.6799,275.7146,179.7438,6.999107,0.0532280,0.46894662,246.8275,06/03.0/2020,2000,g 10.0,4.0
# From MPC 84315
C/2007 D1 (LINEAR),e,41.5007,171.1443,340.1777,1709,0.0000139,0.99482975,0.0000,06/11.0767/2007,2000,g  3.5,4.0
# From MPC 82314
P/2007 K2 (Gibbs),e,7.6411,188.6497,347.4957,7.260054,0.0503842,0.68367375,238.9684,06/03.0/2020,2000,g 14.0,4.0
# From MPC 60925
P/2007 Q2 (Gilmore),e,10.2006,172.1783,162.7831,5.657288,0.0732473,0.67044424,347.0342,06/03.0/2020,2000,g 16.0,4.0
# From MPC 75708
P/2007 R2 (Gibbs),e,1.2165,11.4320,352.3691,3.573961,0.1458745,0.54236637,344.6559,06/03.0/2020,2000,g 17.0,4.0
# From MPC 75708
P/2007 R4 (Garradd),e,20.2336,87.2190,282.7413,5.917679,0.0684663,0.66978871,322.0690,06/03.0/2020,2000,g 14.5,4.0
# From MPC 73462
P/2007 S1 (Zhao),e,5.9626,141.3931,245.8279,3.810638,0.1324974,0.33976142,246.3301,06/03.0/2020,2000,g 13.0,4.0
# From MPC 61994
P/2007 T2 (Kowalski),e,9.7409,3.3785,359.6344,3.047449,0.1852675,0.78505347,126.0617,06/03.0/2020,2000,g 18.5,4.0
# From MPC 75708
P/2007 VQ11 (Catalina),e,12.3202,163.8188,277.6826,5.424829,0.0780055,0.50315304,351.6484,06/03.0/2020,2000,g 12.0,4.0
# From MPC 75708
P/2008 CL94 (Lemmon),e,8.3486,33.3415,80.6634,6.158694,0.0644868,0.12006297,329.1960,06/03.0/2020,2000,g  8.0,4.0
# From MPC 75709
P/2008 L2 (Hill),e,25.8499,218.0038,141.1982,6.028872,0.0665809,0.61280317,288.5924,06/03.0/2020,2000,g 12.5,4.0
# From MPC 64114
P/2008 O3 (Boattini),e,32.2271,47.6110,341.0774,8.225259,0.0417811,0.69463650,183.6561,06/03.0/2020,2000,g 13.0,4.0
# From MPC 75709
P/2008 QP20 (LINEAR-Hill),e,7.5173,322.1210,75.7383,3.548057,0.1474749,0.49293415,274.7541,06/03.0/2020,2000,g 15.5,4.0
# From MPC 66204
P/2008 WZ96 (LINEAR),e,7.1245,56.6098,341.7921,3.491534,0.1510705,0.47135836,292.1139,06/03.0/2020,2000,g 13.5,4.0
# From MPC 75710
P/2008 Y3 (McNaught),e,38.7591,262.7800,238.3270,8.044894,0.0431940,0.44568542,180.2722,06/03.0/2020,2000,g  8.5,4.0
# From MPC 75710
P/2009 B1 (Boattini),e,22.2186,297.0925,128.9217,6.734588,0.0563946,0.63446783,234.6580,06/03.0/2020,2000,g 13.0,4.0
# From MPC 66466
C/2009 G1 (STEREO),e,108.7483,120.4323,175.3534,415.2671,0.0001165,0.99727336,0.0000,04/14.5216/2009,2000,g  9.0,4.0
# From MPC 75710
P/2009 O3 (Hill),e,16.2535,183.7330,154.3563,7.772125,0.0454877,0.68724036,183.5095,06/03.0/2020,2000,g 12.5,4.0
# From MPC 98557
P/2009 Q1 (Hill),e,14.5047,173.9555,157.1131,5.520019,0.0759964,0.49460339,305.2649,06/03.0/2020,2000,g 11.5,4.0
# From MPC112389
P/2009 Q4 (Boattini),e,11.0153,127.4651,320.2264,3.127852,0.1781701,0.58252318,323.1227,06/03.0/2020,2000,g 15.5,4.0
# From MPC 68902
P/2009 Q5 (McNaught),e,40.9604,160.2493,209.0177,7.440154,0.0485659,0.60825118,190.7982,06/03.0/2020,2000,g 10.0,4.0
# From MPC112389
P/2009 T2 (La Sagra),e,27.5283,215.7627,216.4602,7.725508,0.0459001,0.76482600,174.8784,06/03.0/2020,2000,g 14.0,4.0
# From MPC 75711
P/2009 U4 (McNaught),e,10.0818,55.3599,259.8530,5.080462,0.0860695,0.67592360,339.0729,06/03.0/2020,2000,g 14.0,4.0
# From MPC105235
P/2009 WX51 (Catalina),e,9.5958,31.6889,118.0687,3.078698,0.1824540,0.74017229,329.6463,06/03.0/2020,2000,g 19.0,2.0
# From MPC 74247
P/2009 Y2 (Kowalski),e,29.9273,262.0236,172.2015,6.548043,0.0588216,0.63574268,220.1442,06/03.0/2020,2000,g 13.0,4.0
# From MPC 75711
P/2010 A3 (Hill),e,14.8907,64.2548,41.7938,6.074367,0.0658343,0.73294777,245.0587,06/03.0/2020,2000,g 14.0,4.0
# From MPC 72851
P/2010 A5 (LINEAR),e,5.7985,277.6649,307.0883,5.084469,0.0859678,0.66515240,316.8933,06/03.0/2020,2000,g 13.0,4.0
# From MPC105235
P/2010 B2 (WISE),e,8.9305,0.8519,155.9269,3.109821,0.1797219,0.47990933,326.8264,06/03.0/2020,2000,g 17.0,4.0
# From MPC 75008
P/2010 C1 (Scotti),e,9.1286,141.8869,3.8717,7.101770,0.0520780,0.25861361,200.3900,06/03.0/2020,2000,g  9.5,4.0
# From MPC 75008
P/2010 D2 (WISE),e,57.0847,319.8917,120.1429,6.714982,0.0566418,0.45069735,212.7977,06/03.0/2020,2000,g 16.0,4.0
# From MPC 75009
P/2010 E2 (Jarnac),e,15.4166,177.8254,8.3746,8.636579,0.0388322,0.72063774,144.1124,06/03.0/2020,2000,g 14.0,4.0
# From MPC 72851
P/2010 H2 (Vales),e,14.2725,64.2151,128.2941,3.835542,0.1312091,0.19552477,130.8534,06/03.0/2020,2000,g  6.0,4.0
# From MPC 70361
P/2010 H3 (SOHO),e,23.2058,77.3183,25.9291,3.063495,0.1838139,0.98549327,0.0000,02/07.9127/2021,2000,g 20.0,2.0
# From MPC 73463
P/2010 H4 (Scotti),e,2.3196,44.7536,179.5713,6.587405,0.0582952,0.26801768,211.8345,06/03.0/2020,2000,g 10.5,4.0
# From MPC 74637
